GORIZONT 1 [-]          
1 11158U 78118A   23113.61020802 -.00000214  00000+0  00000+0 0  9996
2 11158  11.1178 193.0764 3393181 298.3963  31.8293  1.00283350111400
GORIZONT 2 [-]          
1 11440U 79062A   23115.54749045 -.00000190  00000+0  00000+0 0  9993
2 11440   8.5514 298.2486 0000688 318.6141 237.1508  1.00301058126508
GORIZONT 3 [-]          
1 11648U 79105A   23115.48072222 -.00000359  00000+0  00000+0 0  9997
2 11648   8.7162 299.7413 0012461 216.9333 338.1389  1.00288821110964
GORIZONT 4 [-]          
1 11841U 80049A   23115.51523948 -.00000071  00000+0  00000+0 0  9992
2 11841   9.8849 305.7708 0001079  88.0502 287.0532  0.98628789222195
GORIZONT 5 [-]          
1 13092U 82020A   23116.08190369  .00000008  00000+0  00000+0 0  9992
2 13092  10.9047 311.1488 0033457 218.3458 322.1081  0.98530733110262
GORIZONT 6 [-]          
1 13624U 82103A   23115.59465191 -.00000017  00000+0  00000+0 0  9999
2 13624   9.8393 311.2475 0001156 124.6634 229.7868  1.00376210109420
GORIZONT 7 [-]          
1 14160U 83066A   23115.12688546 -.00000023  00000+0  00000+0 0  9991
2 14160  11.5535 320.8397 0009066 326.2929  21.3357  0.98347079143444
GORIZONT 8 [-]          
1 14532U 83118A   23115.57701093 -.00000048  00000+0  00000+0 0  9991
2 14532  11.7406 322.7301 0030508 154.6057 166.3534  0.98269490109216
GORIZONT 9 [-]          
1 14940U 84041A   23115.18243837  .00000073  00000+0  00000+0 0  9991
2 14940  10.9281 320.7061 0004277 210.2154 160.7099  1.00265066110421
GORIZONT 10 [-]         
1 15144U 84078A   23115.38685642  .00000097  00000+0  00000+0 0  9990
2 15144  11.0313 321.7271 0001159 120.2685 104.9088  1.00306459143050
GORIZONT 11 [-]         
1 15484U 85007A   23115.41602678 -.00000271  00000+0  00000+0 0  9997
2 15484  11.2245 323.7386 0004143 146.5048  36.1693  1.00288681141111
GORIZONT 12 [-]         
1 16769U 86044A   23115.18660560  .00000120  00000+0  00000+0 0  9996
2 16769  11.8903 329.1845 0000755 172.4143 180.2223  1.00296961135735
GORIZONT 13 [-]         
1 17083U 86090A   23115.55341767 -.00000119  00000+0  00000+0 0  9992
2 17083  13.8170 336.4763 0013116 350.6070 199.4740  0.96726238107539
GORIZONT 14 [-]         
1 17969U 87040A   23115.51733144 -.00000096  00000+0  00000+0 0  9995
2 17969  12.6862 327.7634 0031232 177.8617 186.1996  0.97658670108646
GORIZONT 15 [-]         
1 19017U 88028A   23115.29146616 -.00000099  00000+0  00000+0 0  9998
2 19017  14.1359 339.2347 0037090 161.1359  31.7965  0.97828786108262
GORIZONT 16 [-]         
1 19397U 88071A   23115.32031987  .00000075  00000+0  00000+0 0  9998
2 19397  12.9827 337.9093 0015346  70.2113 303.8346  0.99979521126756
GORIZONT 17 [-]         
1 19765U 89004A   23115.37391795 -.00000160  00000+0  00000+0 0  9991
2 19765  13.5587 341.2979 0023752 136.0414  53.3408  0.99068934124190
GORIZONT 18 [-]         
1 20107U 89052A   23115.48647510 -.00000336  00000+0  00000+0 0  9992
2 20107  13.6157 342.5441 0033193 324.9880 218.2368  0.99404165122992
GORIZONT 19 [-]         
1 20263U 89081A   23115.55298183 -.00000372  00000+0  00000+0 0  9993
2 20263  13.3388 341.6981 0003422 194.8897 347.0806  1.00300132 35826
GORIZONT 20 [-]         
1 20659U 90054A   23114.76669421 -.00000030  00000+0  00000+0 0  9994
2 20659  13.8040 344.5123 0006838 168.4330  42.6236  1.00226269120163
GORIZONT 21 [-]         
1 20923U 90094A   23115.45387549 -.00000214  00000+0  00000+0 0  9991
2 20923  13.8242 345.2672 0003820 200.7057 164.1247  1.00308507118932
GORIZONT 22 [-]         
1 20953U 90102A   23115.55176153 -.00000334  00000+0  00000+0 0  9995
2 20953  13.7855 345.6482 0002834  44.4409 126.4833  1.00173581118850
GORIZONT 23 [-]         
1 21533U 91046A   23115.25674211  .00000023  00000+0  00000+0 0  9997
2 21533  14.5904 349.8391 0003257 334.9751 208.7358  0.98907534 35326
GORIZONT 24 [-]         
1 21759U 91074A   23115.62472427 -.00000023  00000+0  00000+0 0  9995
2 21759  14.7652 351.7705 0017323 229.1545 119.6648  0.98442146113641
GORIZONT 25 [-]         
1 21922U 92017A   23115.35535670 -.00000043  00000+0  00000+0 0  9997
2 21922  14.3026 351.0573 0029750  88.2907 270.3228  0.99856897113465
GORIZONT 26 [-]         
1 22041U 92043A   23115.75719069  .00000070  00000+0  00000+0 0  9998
2 22041  14.4936 353.0949 0029725 240.4112 310.6030  0.99240504112099
GORIZONT 27 [-]         
1 22245U 92082A   23114.88458757 -.00000086  00000+0  00000+0 0  9992
2 22245  14.4091 352.6342 0012369  20.5711 152.3388  1.00213065115609
GORIZONT 28 [-]         
1 22880U 93069A   23114.75882896  .00000097  00000+0  00000+0 0  9995
2 22880  14.5900 356.5387 0034689 136.8520  39.7771  0.99649649107674
GORIZONT 29 [-]         
1 22907U 93072A   23115.27062292 -.00000042  00000+0  00000+0 0  9998
2 22907  14.4952 355.9698 0009953 359.0779 201.8137  1.00115522107690
GORIZONT 30 [-]         
1 23108U 94030A   23115.55455080 -.00000379  00000+0  00000+0 0  9992
2 23108  14.5167 356.8577 0001751 133.7970  41.1356  1.00192589105949
GORIZONT 31 [-]         
1 23775U 96005A   23115.15549990 -.00000184  00000+0  00000+0 0  9990
2 23775  14.4996   3.1389 0018387 205.7722 335.2466  0.99885051 99579
GORIZONT 32 [-]         
1 23880U 96034A   23115.47083723 -.00000184  00000+0  00000+0 0  9991
2 23880  14.4553   3.6263 0008024   4.8428 170.1015  1.00221335 98521
GORIZONT 33 [-]         
1 26372U 00029A   23114.95510809 -.00000113  00000+0  00000+0 0  9993
2 26372  13.2914  14.9798 0003540  86.0042  84.3731  1.00288668 83907
